CSG-3                   
1 67304U 26001A   26031.22024347 -.00004992  00000+0 -61830-3 0  9991
2 67304  97.8670 216.8089 0002128  84.0655 276.0801 14.82339651  4172
STARLINK-36490          
1 67305U 26002A   26031.16668981  .00036741  00000+0  63002-3 0  9992
2 67305  42.9998 178.5256 0002021 269.9064 129.1825 15.50539448  5444
STARLINK-36488          
1 67306U 26002B   26031.16668981  .00035026  00000+0  60100-3 0  9994
2 67306  42.9995 178.5212 0001655 270.1322 130.8693 15.50540553  5381
STARLINK-36481          
1 67307U 26002C   26031.16668981  .00034940  00000+0  59953-3 0  9993
2 67307  42.9996 178.5114 0001923 272.4120 132.4254 15.50540928  5380
STARLINK-36449          
1 67308U 26002D   26031.16668981  .00035265  00000+0  60501-3 0  9996
2 67308  42.9997 178.5064 0001922 272.3268 134.4258 15.50541708  5447
STARLINK-36482          
1 67309U 26002E   26031.16668981  .00038763  00000+0  66417-3 0  9995
2 67309  42.9994 178.4837 0001982 272.6196 143.7150 15.50540857  5382
STARLINK-36491          
1 67310U 26002F   26031.16668981  .00047916  00000+0  81904-3 0  9995
2 67310  42.9995 178.5178 0001634 275.4257 127.5091 15.50528767  5387
STARLINK-36495          
1 67311U 26002G   26031.16668981  .00036172  00000+0  62040-3 0  9998
2 67311  42.9996 178.5018 0001940 271.5270 137.1480 15.50539100  5544
STARLINK-36485          
1 67312U 26002H   26031.16668981  .00035179  00000+0  60358-3 0  9995
2 67312  42.9996 178.4971 0002088 272.7705 137.8206 15.50540469  5387
STARLINK-36445          
1 67313U 26002J   26031.16668981  .00050144  00000+0  85645-3 0  9991
2 67313  42.9996 178.4927 0001684 265.1583 147.3522 15.50533669  5549
STARLINK-36476          
1 67314U 26002K   26031.16668981  .00036286  00000+0  62224-3 0  9991
2 67314  42.9994 178.4881 0001979 275.3345 139.0836 15.50543076  5384
STARLINK-36463          
1 67315U 26002L   26031.16668981 -.00090872  00000+0 -15591-2 0  9999
2 67315  42.9995 178.4779 0001981 273.0057 145.2279 15.50614619  5449
STARLINK-36461          
1 67316U 26002M   26031.16668981  .00035108  00000+0  60235-3 0  9995
2 67316  42.9997 178.4726 0001823 272.0851 148.0862 15.50542051  5540
STARLINK-36450          
1 67317U 26002N   26031.16668981  .00048389  00000+0  82688-3 0  9997
2 67317  42.9994 178.4693 0001642 264.3566 157.7404 15.50533122  5545
STARLINK-36498          
1 67318U 26002P   26031.16668981  .00040700  00000+0  69701-3 0  9998
2 67318  42.9998 178.4581 0002113 272.9966 152.9324 15.50535684  5441
STARLINK-36470          
1 67319U 26002Q   26031.16668981  .00048159  00000+0  82299-3 0  9992
2 67319  42.9995 178.4642 0001643 265.2236 158.7874 15.50533910  5443
STARLINK-36500          
1 67320U 26002R   26031.16668981  .00042044  00000+0  71971-3 0  9996
2 67320  42.9995 178.4550 0001595 261.2999 166.5470 15.50537038  5445
STARLINK-36462          
1 67321U 26002S   26031.16668981  .00052817  00000+0  90151-3 0  9997
2 67321  42.9995 178.4452 0001601 264.6730 167.0049 15.50533038  5382
STARLINK-36434          
1 67322U 26002T   26031.16668981  .00041978  00000+0  71857-3 0  9996
2 67322  42.9994 178.4502 0001615 265.0393 164.7232 15.50537522  5383
STARLINK-36497          
1 67323U 26002U   26031.16668981  .00036757  00000+0  63028-3 0  9997
2 67323  42.9995 178.4394 0002290 274.5056 159.0895 15.50539694  5446
STARLINK-36471          
1 67324U 26002V   26031.16668981 -.00083896  00000+0 -14378-2 0  9999
2 67324  42.9995 178.4300 0002257 275.4517 161.9506 15.50610698  5387
STARLINK-36473          
1 67325U 26002W   26031.16668981  .00040145  00000+0  68744-3 0  9995
2 67325  42.9994 178.4348 0002179 281.2207 154.2710 15.50544175  5549
STARLINK-36430          
1 67326U 26002X   26031.16668981  .00035767  00000+0  61353-3 0  9999
2 67326  42.9996 178.4194 0002321 275.1935 166.0702 15.50540035  5543
STARLINK-36501          
1 67327U 26002Y   26031.16668981 -.00087541  00000+0 -15012-2 0  9999
2 67327  42.9995 178.4250 0002307 276.4631 162.8576 15.50611405  5382
STARLINK-36489          
1 67328U 26002Z   26031.16668981  .00052884  00000+0  90252-3 0  9990
2 67328  42.9995 178.4162 0001646 263.9619 179.2118 15.50536816  5541
STARLINK-36496          
1 67329U 26002AA  26031.16668981 -.00081931  00000+0 -14037-2 0  9994
2 67329  42.9997 178.4046 0002274 274.1449 172.8406 15.50610216  5364
STARLINK-36483          
1 67330U 26002AB  26031.16668981  .00042321  00000+0  72440-3 0  9997
2 67330  42.9997 178.3952 0001612 265.0119 185.8365 15.50536721  5545
STARLINK-36494          
1 67331U 26002AC  26031.16668981  .00037416  00000+0  64102-3 0  9993
2 67331  42.9996 178.4096 0002302 280.1204 164.8686 15.50556980  5547
STARLINK-36492          
1 67332U 26002AD  26031.16668981  .00043056  00000+0  73681-3 0  9993
2 67332  42.9995 178.4008 0001548 264.3812 184.5535 15.50536694  5542
STARLINK-36427          
1 67333U 26002AE  26031.16668981  .00015867  00000+0  38643-3 0  9992
2 67333  43.0005 178.5594 0001474 282.5831  93.1975 15.40691246  5445
STARLINK-35343          
1 67334U 26003A   26031.16668981 -.02068156  00000+0 -32415-1 0  9996
2 67334  43.0000  81.0347 0000953 274.3959  12.5694 15.56054697  4583
STARLINK-36486          
1 67335U 26003B   26031.16668981 -.02062908  00000+0 -32327-1 0  9998
2 67335  42.9994  81.0302 0001040 267.3493  21.5351 15.56050185  4643
STARLINK-36480          
1 67336U 26003C   26031.16668981 -.02069085  00000+0 -32432-1 0  9999
2 67336  42.9993  81.0257 0000926 273.3572  17.4445 15.56054431  4645
STARLINK-36410          
1 67337U 26003D   26031.16668981 -.02068217  00000+0 -32415-1 0  9997
2 67337  42.9996  81.0209 0001014 263.6705  29.0457 15.56054641  4640
STARLINK-36413          
1 67338U 26003E   26031.16668981 -.02062548  00000+0 -32323-1 0  9997
2 67338  42.9997  81.0155 0000959 264.0603  30.5801 15.56049291  4646
STARLINK-36451          
1 67339U 26003F   26031.16668981 -.02061127  00000+0 -32296-1 0  9999
2 67339  42.9998  81.0104 0000969 269.5439  27.0092 15.56050764  4640
STARLINK-36339          
1 67340U 26003G   26031.16668981 -.02060694  00000+0 -32290-1 0  9993
2 67340  42.9999  81.0063 0000940 264.0261  34.4459 15.56049188  4646
STARLINK-36453          
1 67341U 26003H   26031.16668981 -.02058929  00000+0 -32259-1 0  9997
2 67341  42.9999  81.0007 0000944 269.7616  30.6262 15.56049113  4643
STARLINK-36432          
1 67342U 26003J   26031.16668981 -.02058814  00000+0 -32257-1 0  9999
2 67342  42.9997  80.9964 0001077 263.9277  38.3776 15.56048442  4637
STARLINK-36458          
1 67343U 26003K   26031.16668981 -.02058813  00000+0 -32258-1 0  9990
2 67343  42.9996  80.9915 0000949 264.3477  39.8759 15.56048134  4643
STARLINK-36422          
1 67344U 26003L   26031.16668981 -.02055114  00000+0 -32194-1 0  9991
2 67344  42.9996  80.9857 0001129 263.4060  42.7336 15.56046014  4636
STARLINK-35676          
1 67345U 26003M   26031.16668981 -.02037169  00000+0 -31899-1 0  9993
2 67345  42.9997  80.9813 0001085 259.5014  48.5661 15.56030310  4633
STARLINK-36472          
1 67346U 26003N   26031.16668981 -.02062910  00000+0 -32327-1 0  9993
2 67346  42.9996  80.9763 0000982 264.1212  45.8535 15.56050428  4636
STARLINK-36420          
1 67347U 26003P   26031.16668981 -.02069203  00000+0 -32433-1 0  9994
2 67347  42.9999  80.9666 0001050 263.5259  50.2808 15.56053511  4643
STARLINK-36467          
1 67348U 26003Q   26031.16668981 -.02055177  00000+0 -32194-1 0  9994
2 67348  42.9999  80.9720 0001153 264.1792  47.7115 15.56046419  4649
STARLINK-36457          
1 67349U 26003R   26031.16668981 -.02062408  00000+0 -32321-1 0  9992
2 67349  42.9997  80.9620 0001076 255.9608  59.7666 15.56047608  4640
STARLINK-36475          
1 67350U 26003S   26031.16668981 -.02062644  00000+0 -32322-1 0  9997
2 67350  42.9999  80.9567 0001225 269.8207  47.8207 15.56048888  4638
STARLINK-36478          
1 67351U 26003T   26031.16668981 -.02070773  00000+0 -32459-1 0  9991
2 67351  43.0001  80.9523 0001115 262.6127  56.9454 15.56054296  4632
STARLINK-36479          
1 67352U 26003U   26031.16668981 -.02070989  00000+0 -32462-1 0  9995
2 67352  43.0001  80.9472 0001168 265.6509  55.8238 15.56054498  4644
STARLINK-36474          
1 67353U 26003V   26031.16668981 -.02061698  00000+0 -32305-1 0  9999
2 67353  43.0001  80.9427 0001118 262.2648  61.1275 15.56049891  4649
STARLINK-36448          
1 67354U 26003W   26031.16668981 -.02058218  00000+0 -32245-1 0  9997
2 67354  42.9994  80.9278 0001239 258.9399  70.2054 15.56047771  4643
STARLINK-36477          
1 67355U 26003X   26031.16668981 -.02061085  00000+0 -32296-1 0  9990
2 67355  42.9993  80.9377 0001082 260.5305  64.7794 15.56049079  4636
STARLINK-36429          
1 67356U 26003Y   26031.16668981 -.02058579  00000+0 -32254-1 0  9999
2 67356  42.9994  80.9331 0001076 261.2177  66.0086 15.56047455  4631
STARLINK-36456          
1 67357U 26003Z   26031.16668981 -.02066311  00000+0 -32385-1 0  9998
2 67357  42.9994  80.9230 0001090 261.9497  69.1111 15.56050936  4640
STARLINK-36466          
1 67358U 26003AA  26031.16668981 -.02065417  00000+0 -32368-1 0  9996
2 67358  42.9995  80.9181 0001178 263.6933  69.2828 15.56051609  4642
STARLINK-36499          
1 67359U 26003AB  26031.16668981 -.02071604  00000+0 -32471-1 0  9997
2 67359  42.9998  80.9130 0001177 268.4289  66.4612 15.56056443  4647
STARLINK-36469          
1 67360U 26003AC  26031.16668981 -.02074410  00000+0 -32519-1 0  9990
2 67360  42.9999  80.9081 0001193 267.8910  68.9179 15.56057070  4649
STARLINK-35306          
1 67361U 26003AD  26031.16668981 -.02068018  00000+0 -32409-1 0  9996
2 67361  43.0001  80.9024 0001350 266.9289  71.7981 15.56053516  4584
STARLINK-36428          
1 67362U 26003AE  26031.16668981 -.02072180  00000+0 -32482-1 0  9993
2 67362  43.0001  80.8970 0001152 268.7488  71.8946 15.56055686  4644
